ONEWEB-0645             
1 55809U 23029P   25329.54751604 -.00000725  00000+0 -18425-2 0  9993
2 55809  87.9194 345.5114 0002343  94.0113 266.1287 13.19715913132042
ONEWEB-0646             
1 55810U 23029Q   25329.79237801  .00000024  00000+0  27409-4 0  9994
2 55810  87.9198 345.4522 0002071  86.5376 273.5994 13.19725820132062
ONEWEB-0648             
1 55811U 23029R   25329.72566917 -.00000188  00000+0 -54159-3 0  9995
2 55811  87.8984 330.2395 0002833  88.8315 271.3140 13.14502845132669
ONEWEB-0649             
1 55812U 23029S   25329.74180206  .00000050  00000+0  91681-4 0  9999
2 55812  87.9205 345.4581 0002306  90.4764 269.6633 13.19728584132093
ONEWEB-0650             
1 55813U 23029T   25329.58544303 -.00000054  00000+0 -16665-3 0  9998
2 55813  87.9197 345.4965 0002319  86.7682 273.3715 13.19726964132049
ONEWEB-0652             
1 55814U 23029U   25329.70663407  .00000172  00000+0  42856-3 0  9990
2 55814  87.8983 330.2641 0001628  89.9041 270.2276 13.14502555132637
ONEWEB-0653             
1 55815U 23029V   25329.76690036  .00000260  00000+0  66811-3 0  9990
2 55815  87.8982 330.2418 0001773  94.9344 265.1988 13.14502464132678
ONEWEB-0654             
1 55816U 23029W   25329.76213919  .00000235  00000+0  60009-3 0  9997
2 55816  87.8981 330.2419 0001497  96.1971 263.9329 13.14502364132698
